[{"OBJECT_NAME":"SHIYAN-21 (SY-21)","OBJECT_ID":"2022-172A","EPOCH":"2026-03-09T23:40:42.191616","MEAN_MOTION":15.28197132,"ECCENTRICITY":0.00206059,"INCLINATION":35.9768,"RA_OF_ASC_NODE":332.6944,"ARG_OF_PERICENTER":79.3933,"MEAN_ANOMALY":280.9121,"EPHEMERIS_TYPE":0,"CLASSIFICATION_TYPE":"U","NORAD_CAT_ID":54752,"ELEMENT_SET_NO":999,"REV_AT_EPOCH":18050,"BSTAR":0.00041186164,"MEAN_MOTION_DOT":0.00011616,"MEAN_MOTION_DDOT":0},{"OBJECT_NAME":"STARLINK-32241","OBJECT_ID":"2024-144N","EPOCH":"2026-03-09T17:01:46.378848","MEAN_MOTION":15.30188966,"ECCENTRICITY":0.00011018,"INCLINATION":53.1599,"RA_OF_ASC_NODE":216.9355,"ARG_OF_PERICENTER":74.4401,"MEAN_ANOMALY":285.6722,"EPHEMERIS_TYPE":0,"CLASSIFICATION_TYPE":"U","NORAD_CAT_ID":60437,"ELEMENT_SET_NO":999,"REV_AT_EPOCH":8931,"BSTAR":6.377078e-6,"MEAN_MOTION_DOT":-1.7e-6,"MEAN_MOTION_DDOT":0}]
